{"fetched_at":"2026-07-13T18:16:31.793Z","source":"https://celestrak.org/NORAD/elements/gp.php?GROUP=oneweb&FORMAT=JSON","constellation":"oneweb","records":[{"OBJECT_NAME":"ONEWEB-0033","OBJECT_ID":"2020-008M","EPOCH":"2026-07-12T22:30:03.998592","CLASSIFICATION_TYPE":"U","MEAN_MOTION":13.10369249,"ECCENTRICITY":0.00021882,"INCLINATION":87.8811,"RA_OF_ASC_NODE":31.1444,"ARG_OF_PERICENTER":96.7702,"MEAN_ANOMALY":263.3674,"EPHEMERIS_TYPE":0,"NORAD_CAT_ID":45142,"ELEMENT_SET_NO":999,"REV_AT_EPOCH":31158,"BSTAR":0.00092899021,"MEAN_MOTION_DOT":0.00000337,"MEAN_MOTION_DDOT":0},{"OBJECT_NAME":"ONEWEB-0035","OBJECT_ID":"2020-008N","EPOCH":"2026-07-12T22:59:35.269440","CLASSIFICATION_TYPE":"U","MEAN_MOTION":13.1037594,"ECCENTRICITY":0.00018313,"INCLINATION":87.8813,"RA_OF_ASC_NODE":31.1339,"ARG_OF_PERICENTER":90.6338,"MEAN_ANOMALY":269.4999,"EPHEMERIS_TYPE":0,"NORAD_CAT_ID":45143,"ELEMENT_SET_NO":999,"REV_AT_EPOCH":31131,"BSTAR":-0.0017845205,"MEAN_MOTION_DOT":-0.0000061,"MEAN_MOTION_DDOT":0},{"OBJECT_NAME":"ONEWEB-0036","OBJECT_ID":"2020-008P","EPOCH":"2026-07-12T22:27:28.379232","CLASSIFICATION_TYPE":"U","MEAN_MOTION":13.10369829,"ECCENTRICITY":0.00017364,"INCLINATION":87.8824,"RA_OF_ASC_NODE":31.1549,"ARG_OF_PERICENTER":83.7356,"MEAN_ANOMALY":276.3969,"EPHEMERIS_TYPE":0,"NORAD_CAT_ID":45144,"ELEMENT_SET_NO":999,"REV_AT_EPOCH":31173,"BSTAR":0.00092498059,"MEAN_MOTION_DOT":0.00000336,"MEAN_MOTION_DDOT":0},{"OBJECT_NAME":"ONEWEB-0038","OBJECT_ID":"2020-008Q","EPOCH":"2026-07-12T22:58:21.577152","CLASSIFICATION_TYPE":"U","MEAN_MOTION":13.11416968,"ECCENTRICITY":0.00019168,"INCLINATION":87.8897,"RA_OF_ASC_NODE":15.9489,"ARG_OF_PERICENTER":145.5493,"MEAN_ANOMALY":214.576,"EPHEMERIS_TYPE":0,"NORAD_CAT_ID":45145,"ELEMENT_SET_NO":999,"REV_AT_EPOCH":31370,"BSTAR":0.001781267,"MEAN_MOTION_DOT":0.00000644,"MEAN_MOTION_DDOT":0},{"OBJECT_NAME":"ONEWEB-0039","OBJECT_ID":"2020-008R","EPOCH":"2026-07-12T13:25:10.687872","CLASSIFICATION_TYPE":"U","MEAN_MOTION":13.10371484,"ECCENTRICITY":0.0001268,"INCLINATION":87.8814,"RA_OF_ASC_NODE":31.2111,"ARG_OF_PERICENTER":75.5375,"MEAN_ANOMALY":284.5892,"EPHEMERIS_TYPE":0,"NORAD_CAT_ID":45146,"ELEMENT_SET_NO":999,"REV_AT_EPOCH":31148,"BSTAR":-0.000054674,"MEAN_MOTION_DOT":-6e-8,"MEAN_MOTION_DDOT":0},{"OBJECT_NAME":"ONEWEB-0040","OBJECT_ID":"2020-008S","EPOCH":"2026-07-12T22:25:10.533216","CLASSIFICATION_TYPE":"U","MEAN_MOTION":13.10369422,"ECCENTRICITY":0.00018917,"INCLINATION":87.8812,"RA_OF_ASC_NODE":31.1466,"ARG_OF_PERICENTER":77.1065,"MEAN_ANOMALY":283.0274,"EPHEMERIS_TYPE":0,"NORAD_CAT_ID":45147,"ELEMENT_SET_NO":999,"REV_AT_EPOCH":31123,"BSTAR":0.0012318418,"MEAN_MOTION_DOT":0.00000443,"MEAN_MOTION_DDOT":0},{"OBJECT_NAME":"ONEWEB-0043","OBJECT_ID":"2020-008U","EPOCH":"2026-07-12T22:27:49.853088","CLASSIFICATION_TYPE":"U","MEAN_MOTION":13.10372391,"ECCENTRICITY":0.00013462,"INCLINATION":87.8815,"RA_OF_ASC_NODE":31.135,"ARG_OF_PERICENTER":79.5203,"MEAN_ANOMALY":280.6076,"EPHEMERIS_TYPE":0,"NORAD_CAT_ID":45149,"ELEMENT_SET_NO":999,"REV_AT_EPOCH":31155,"BSTAR":0.0010165844,"MEAN_MOTION_DOT":0.00000368,"MEAN_MOTION_DDOT":0},{"OBJECT_NAME":"ONEWEB-0044","OBJECT_ID":"2020-008V","EPOCH":"2026-07-12T23:09:10.175040","CLASSIFICATION_TYPE":"U","MEAN_MOTION":13.10376507,"ECCENTRICITY":0.00017383,"INCLINATION":87.8822,"RA_OF_ASC_NODE":31.1311,"ARG_OF_PERICENTER":83.6166,"MEAN_ANOMALY":276.5159,"EPHEMERIS_TYPE":0,"NORAD_CAT_ID":45150,"ELEMENT_SET_NO":999,"REV_AT_EPOCH":31185,"BSTAR":-0.0016573115,"MEAN_MOTION_DOT":-0.00000566,"MEAN_MOTION_DDOT":0},{"OBJECT_NAME":"ONEWEB-0045","OBJECT_ID":"2020-008W","EPOCH":"2026-07-12T21:00:58.072896","CLASSIFICATION_TYPE":"U","MEAN_MOTION":13.11417197,"ECCENTRICITY":0.00017207,"INCLINATION":87.8888,"RA_OF_ASC_NODE":15.9459,"ARG_OF_PERICENTER":90.9638,"MEAN_ANOMALY":269.1687,"EPHEMERIS_TYPE":0,"NORAD_CAT_ID":45151,"ELEMENT_SET_NO":999,"REV_AT_EPOCH":31377,"BSTAR":0.0014494873,"MEAN_MOTION_DOT":0.00000526,"MEAN_MOTION_DDOT":0},{"OBJECT_NAME":"ONEWEB-0047","OBJECT_ID":"2020-008X","EPOCH":"2026-07-12T22:59:10.121856","CLASSIFICATION_TYPE":"U","MEAN_MOTION":13.10370838,"ECCENTRICITY":0.00019191,"INCLINATION":87.8821,"RA_OF_ASC_NODE":31.1319,"ARG_OF_PERICENTER":95.3922,"MEAN_ANOMALY":264.7424,"EPHEMERIS_TYPE":0,"NORAD_CAT_ID":45152,"ELEMENT_SET_NO":999,"REV_AT_EPOCH":31157,"BSTAR":-0.0019182862,"MEAN_MOTION_DOT":-0.00000657,"MEAN_MOTION_DDOT":0},{"OBJECT_NAME":"ONEWEB-0048","OBJECT_ID":"2020-008Y","EPOCH":"2026-07-12T13:42:17.190720","CLASSIFICATION_TYPE":"U","MEAN_MOTION":13.10372177,"ECCENTRICITY":0.00017,"INCLINATION":87.881,"RA_OF_ASC_NODE":31.2278,"ARG_OF_PERICENTER":91.0563,"MEAN_ANOMALY":269.0759,"EPHEMERIS_TYPE":0,"NORAD_CAT_ID":45153,"ELEMENT_SET_NO":999,"REV_AT_EPOCH":31113,"BSTAR":-0.0013931,"MEAN_MOTION_DOT":-0.00000474,"MEAN_MOTION_DDOT":0},{"OBJECT_NAME":"ONEWEB-0049","OBJECT_ID":"2020-008Z","EPOCH":"2026-07-12T22:56:42.951552","CLASSIFICATION_TYPE":"U","MEAN_MOTION":13.10371034,"ECCENTRICITY":0.00019306,"INCLINATION":87.8812,"RA_OF_ASC_NODE":31.1406,"ARG_OF_PERICENTER":75.1872,"MEAN_ANOMALY":284.9469,"EPHEMERIS_TYPE":0,"NORAD_CAT_ID":45154,"ELEMENT_SET_NO":999,"REV_AT_EPOCH":31140,"BSTAR":-0.0015602299,"MEAN_MOTION_DOT":-0.00000532,"MEAN_MOTION_DDOT":0},{"OBJECT_NAME":"ONEWEB-0051","OBJECT_ID":"2020-008AA","EPOCH":"2026-07-12T20:58:31.764864","CLASSIFICATION_TYPE":"U","MEAN_MOTION":13.11418858,"ECCENTRICITY":0.0001833,"INCLINATION":87.8883,"RA_OF_ASC_NODE":15.9516,"ARG_OF_PERICENTER":89.769,"MEAN_ANOMALY":270.3648,"EPHEMERIS_TYPE":0,"NORAD_CAT_ID":45155,"ELEMENT_SET_NO":999,"REV_AT_EPOCH":31445,"BSTAR":0.0013116084,"MEAN_MOTION_DOT":0.00000478,"MEAN_MOTION_DDOT":0},{"OBJECT_NAME":"ONEWEB-0052","OBJECT_ID":"2020-008AB","EPOCH":"2026-07-12T23:26:29.110848","CLASSIFICATION_TYPE":"U","MEAN_MOTION":13.10377901,"ECCENTRICITY":0.00018094,"INCLINATION":87.8822,"RA_OF_ASC_NODE":31.1238,"ARG_OF_PERICENTER":74.6124,"MEAN_ANOMALY":285.5203,"EPHEMERIS_TYPE":0,"NORAD_CAT_ID":45156,"ELEMENT_SET_NO":999,"REV_AT_EPOCH":31131,"BSTAR":-0.00034707307,"MEAN_MOTION_DOT":-0.00000109,"MEAN_MOTION_DDOT":0},{"OBJECT_NAME":"ONEWEB-0053","OBJECT_ID":"2020-008AC","EPOCH":"2026-07-12T22:22:44.558688","CLASSIFICATION_TYPE":"U","MEAN_MOTION":13.10368668,"ECCENTRICITY":0.00015017,"INCLINATION":87.8813,"RA_OF_ASC_NODE":31.1525,"ARG_OF_PERICENTER":73.0168,"MEAN_ANOMALY":287.1124,"EPHEMERIS_TYPE":0,"NORAD_CAT_ID":45157,"ELEMENT_SET_NO":999,"REV_AT_EPOCH":31128,"BSTAR":0.00089833094,"MEAN_MOTION_DOT":0.00000326,"MEAN_MOTION_DDOT":0},{"OBJECT_NAME":"ONEWEB-0054","OBJECT_ID":"2020-008AD","EPOCH":"2026-07-12T23:14:03.062400","CLASSIFICATION_TYPE":"U","MEAN_MOTION":13.10376419,"ECCENTRICITY":0.00018087,"INCLINATION":87.8831,"RA_OF_ASC_NODE":31.1324,"ARG_OF_PERICENTER":92.2155,"MEAN_ANOMALY":267.918,"EPHEMERIS_TYPE":0,"NORAD_CAT_ID":45158,"ELEMENT_SET_NO":999,"REV_AT_EPOCH":31140,"BSTAR":-0.00081184646,"MEAN_MOTION_DOT":-0.00000271,"MEAN_MOTION_DDOT":0}]}
