ONEWEB-0033             
1 45142U 20008M   26193.93754628  .00000337  00000+0  92899-3 0  9993
2 45142  87.8811  31.1444 0002188  96.7702 263.3674 13.10369249311585
ONEWEB-0035             
1 45143U 20008N   26193.95804710 -.00000610  00000+0 -17845-2 0  9997
2 45143  87.8813  31.1339 0001831  90.6338 269.4999 13.10375940311316
ONEWEB-0036             
1 45144U 20008P   26193.93574513  .00000336  00000+0  92498-3 0  9992
2 45144  87.8824  31.1549 0001736  83.7356 276.3969 13.10369829311738
ONEWEB-0038             
1 45145U 20008Q   26193.95719418  .00000644  00000+0  17813-2 0  9999
2 45145  87.8897  15.9489 0001916 145.5493 214.5760 13.11416968313701
ONEWEB-0039             
1 45146U 20008R   26193.55915148 -.00000006  00000+0 -54674-4 0  9996
2 45146  87.8814  31.2111 0001268  75.5375 284.5892 13.10371484311483
ONEWEB-0040             
1 45147U 20008S   26193.93414969  .00000443  00000+0  12318-2 0  9994
2 45147  87.8812  31.1466 0001891  77.1065 283.0274 13.10369422311230
ONEWEB-0043             
1 45149U 20008U   26193.93599367  .00000368  00000+0  10166-2 0  9997
2 45149  87.8815  31.1350 0001346  79.5203 280.6076 13.10372391311559
ONEWEB-0044             
1 45150U 20008V   26193.96470110 -.00000566  00000+0 -16573-2 0  9996
2 45150  87.8822  31.1311 0001738  83.6166 276.5159 13.10376507311857
ONEWEB-0045             
1 45151U 20008W   26193.87567214  .00000526  00000+0  14495-2 0  9994
2 45151  87.8888  15.9459 0001720  90.9638 269.1687 13.11417197313778
ONEWEB-0047             
1 45152U 20008X   26193.95775604 -.00000657  00000+0 -19183-2 0  9994
2 45152  87.8821  31.1319 0001919  95.3922 264.7424 13.10370838311571
ONEWEB-0048             
1 45153U 20008Y   26193.57103230 -.00000474  00000+0 -13931-2 0  9995
2 45153  87.8810  31.2278 0001700  91.0563 269.0759 13.10372177311136
ONEWEB-0049             
1 45154U 20008Z   26193.95605268 -.00000532  00000+0 -15602-2 0  9998
2 45154  87.8812  31.1406 0001930  75.1872 284.9469 13.10371034311407
ONEWEB-0051             
1 45155U 20008AA  26193.87397876  .00000478  00000+0  13116-2 0  9998
2 45155  87.8883  15.9516 0001833  89.7690 270.3648 13.11418858314452
ONEWEB-0052             
1 45156U 20008AB  26193.97672582 -.00000109  00000+0 -34707-3 0  9993
2 45156  87.8822  31.1238 0001809  74.6124 285.5203 13.10377901311314
ONEWEB-0053             
1 45157U 20008AC  26193.93246017  .00000326  00000+0  89833-3 0  9999
2 45157  87.8813  31.1525 0001501  73.0168 287.1124 13.10368668311280
ONEWEB-0054             
1 45158U 20008AD  26193.96809100 -.00000271  00000+0 -81185-3 0  9994
2 45158  87.8831  31.1324 0001808  92.2155 267.9180 13.10376419311402
